ICEYE-X53               
1 64584U 25135BJ  26198.29186366  .00001344  00000+0  11033-3 0  9992
2 64584  97.7359 314.9407 0002010 165.2150 194.9133 15.00898283 58591
ICEYE-X65               
1 66300U 25248H   26197.43197917  .00001315  00000+0  10026-3 0  9993
2 66300  45.4058 340.3956 0005646 205.8452 154.2149 15.07932171 39936
ICEYE-X66               
1 66301U 25248J   26197.42864977  .00001350  00000+0  99234-4 0  9998
2 66301  45.4025 339.4811 0005307 201.7259 158.3399 15.09180943 39929
ICEYE-X67               
1 66302U 25248K   26197.45334882  .00001648  00000+0  11777-3 0  9994
2 66302  45.4062 338.9301 0006804 201.9583 158.1008 15.09163646 39942
ICEYE-X58               
1 66751U 25276CP  26197.86227907  .00001379  00000+0  72482-4 0  9999
2 66751  97.4197 270.7066 0002299 205.0507 155.0615 15.17311704 34913
ICEYE-X59               
1 66752U 25276CQ  26198.14604190  .00002640  00000+0  21256-3 0  9999
2 66752  97.4391 268.1632 0001159 136.5783 223.5533 15.00763689 34766
ICEYE-X60               
1 66753U 25276CR  26198.18658909  .00001984  00000+0  12355-3 0  9991
2 66753  97.4241 269.9598 0002281 357.9600   2.1620 15.10704246 34892
ICEYE-X61               
1 66754U 25276CS  26197.74724750  .00001571  00000+0  79163-4 0  9994
2 66754  97.4193 270.6864 0002212 207.8838 152.2279 15.18614124 34906
ICEYE-X62               
1 66755U 25276CT  26197.74931553  .00002915  00000+0  18243-3 0  9990
2 66755  97.4179 269.0335 0001129 210.4552 149.6612 15.10153672 34791
ICEYE-X63               
1 67372U 26004K   26198.26843334  .00000435  00000+0  52842-4 0  9992
2 67372  97.8015 196.4394 0005304  46.4784 313.6872 14.88351099 27779
ICEYE-X64               
1 67373U 26004L   26198.25039992  .00000584  00000+0  69598-4 0  9990
2 67373  97.8029 196.3401 0007141  48.7328 311.4503 14.87990053 27767
ICEYE-X71               
1 68494U 26067CG  26195.36222958  .00001475  00000+0  15178-3 0  9993
2 68494  97.7625 153.1825 0001068 349.9955  10.1242 14.91790708 15779
ICEYE-X73               
1 68496U 26067CJ  26197.87107881  .00000994  00000+0  10271-3 0  9994
2 68496  97.7624 155.7407 0001670 145.8224 214.3103 14.92352585 16150
ICEYE-X75               
1 68497U 26067CK  26197.87576056  .00000379  00000+0  42730-4 0  9992
2 68497  97.7607 155.7116 0001607 142.3326 217.8006 14.92175312 16155
ICEYE-X74               
1 68500U 26067CN  26197.84313103  .00001289  00000+0  13339-3 0  9999
2 68500  97.7633 155.6362 0000687 333.7208  26.3976 14.91797572 16148
ICEYE-X76               
1 68502U 26067CQ  26198.30860690  .00000555  00000+0  60633-4 0  9996
2 68502  97.7640 156.1129 0000456 292.9662  67.1509 14.91753329 16214
